{
    "CCSDS_OMM_VERS": "3.0",
    "COMMENT": "GENERATED VIA SPACE-TRACK.ORG API",
    "CREATION_DATE": "2025-11-23T23:06:32",
    "ORIGINATOR": "18 SPCS",
    "OBJECT_NAME": "BEIDOU 8",
    "OBJECT_ID": "2011-013A",
    "CENTER_NAME": "EARTH",
    "REF_FRAME": "TEME",
    "TIME_SYSTEM": "UTC",
    "MEAN_ELEMENT_THEORY": "SGP4",
    "EPOCH": "2025-11-23T16:24:52.386624",
    "MEAN_MOTION": "1.00275593",
    "ECCENTRICITY": "0.00360620",
    "INCLINATION": "62.1172",
    "RA_OF_ASC_NODE": "42.1010",
    "ARG_OF_PERICENTER": "185.6386",
    "MEAN_ANOMALY": "189.1887",
    "EPHEMERIS_TYPE": "0",
    "CLASSIFICATION_TYPE": "U",
    "NORAD_CAT_ID": "37384",
    "ELEMENT_SET_NO": "999",
    "REV_AT_EPOCH": "5360",
    "BSTAR": "0.00000000000000",
    "MEAN_MOTION_DOT": "-0.00000180",
    "MEAN_MOTION_DDOT": "0.0000000000000",
    "SEMIMAJOR_AXIS": "42163.664",
    "PERIOD": "1436.042",
    "APOAPSIS": "35937.580",
    "PERIAPSIS": "35633.479",
    "OBJECT_TYPE": "PAYLOAD",
    "RCS_SIZE": "LARGE",
    "COUNTRY_CODE": "PRC",
    "LAUNCH_DATE": "2011-04-09",
    "SITE": "XSC",
    "DECAY_DATE": null,
    "FILE": "4896336",
    "GP_ID": "303352040",
    "TLE_LINE0": "0 BEIDOU 8",
    "TLE_LINE1": "1 37384U 11013A   25327.68393966 -.00000180  00000-0  00000+0 0  9999",
    "TLE_LINE2": "2 37384  62.1172  42.1010 0036062 185.6386 189.1887  1.00275593 53606"
}